{
  "links" : {
    "next" : "https://api.nasa.gov/neo/rest/v1/feed?start_date=2012-08-09&end_date=2012-08-09&detailed=true&api_key=t0TVs3DtDT2H8Oy2Zy8m2eVrNsAVKAexjcZXUckd",
    "prev" : "https://api.nasa.gov/neo/rest/v1/feed?start_date=2012-08-07&end_date=2012-08-07&detailed=true&api_key=t0TVs3DtDT2H8Oy2Zy8m2eVrNsAVKAexjcZXUckd",
    "self" : "https://api.nasa.gov/neo/rest/v1/feed?start_date=2012-08-08&end_date=2012-08-08&detailed=true&api_key=t0TVs3DtDT2H8Oy2Zy8m2eVrNsAVKAexjcZXUckd"
  },
  "element_count" : 10,
  "near_earth_objects" : {
    "2012-08-08" : [ {
      "links" : {
        "self" : "https://api.nasa.gov/neo/rest/v1/neo/3182169?api_key=t0TVs3DtDT2H8Oy2Zy8m2eVrNsAVKAexjcZXUckd"
      },
      "neo_reference_id" : "3182169",
      "name" : "(2004 JN1)",
      "nasa_jpl_url" : "http://ssd.jpl.nasa.gov/sbdb.cgi?sstr=3182169",
      "absolute_magnitude_h" : 23.6,
      "estimated_diameter" : {
        "kilometers" : {
          "estimated_diameter_min" : 0.0506471459,
          "estimated_diameter_max" : 0.1132504611
        },
        "meters" : {
          "estimated_diameter_min" : 50.6471458835,
          "estimated_diameter_max" : 113.2504610618
        },
        "miles" : {
          "estimated_diameter_min" : 0.0314706677,
          "estimated_diameter_max" : 0.0703705522
        },
        "feet" : {
          "estimated_diameter_min" : 166.1651821003,
          "estimated_diameter_max" : 371.5566426699
        }
      },
      "is_potentially_hazardous_asteroid" : false,
      "close_approach_data" : [ {
        "close_approach_date" : "2012-08-08",
        "epoch_date_close_approach" : 1344409200000,
        "relative_velocity" : {
          "kilometers_per_second" : "5.4263475333",
          "kilometers_per_hour" : "19534.8511199231",
          "miles_per_hour" : "12138.1967972655"
        },
        "miss_distance" : {
          "astronomical" : "0.2594749324",
          "lunar" : "100.9357452393",
          "kilometers" : "38816896",
          "miles" : "24119702"
        },
        "orbiting_body" : "Earth"
      } ],
      "orbital_data" : {
        "orbit_id" : "21",
        "orbit_determination_date" : "2017-04-06 09:12:49",
        "orbit_uncertainty" : "0",
        "minimum_orbit_intersection" : ".0231683",
        "jupiter_tisserand_invariant" : "5.694",
        "epoch_osculation" : "2458000.5",
        "eccentricity" : ".1755281002971447",
        "semi_major_axis" : "1.085053919527081",
        "inclination" : "1.499707987243189",
        "ascending_node_longitude" : "143.9720934468935",
        "orbital_period" : "412.8339519813857",
        "perihelion_distance" : ".8945964663125213",
        "perihelion_argument" : "2.124647144481263",
        "aphelion_distance" : "1.27551137274164",
        "perihelion_time" : "2458019.676041011311",
        "mean_anomaly" : "343.2780837648182",
        "mean_motion" : ".8720213012330731",
        "equinox" : "J2000"
      }
    }, {
      "links" : {
        "self" : "https://api.nasa.gov/neo/rest/v1/neo/3289744?api_key=t0TVs3DtDT2H8Oy2Zy8m2eVrNsAVKAexjcZXUckd"
      },
      "neo_reference_id" : "3289744",
      "name" : "(2005 RA3)",
      "nasa_jpl_url" : "http://ssd.jpl.nasa.gov/sbdb.cgi?sstr=3289744",
      "absolute_magnitude_h" : 22.3,
      "estimated_diameter" : {
        "kilometers" : {
          "estimated_diameter_min" : 0.0921626549,
          "estimated_diameter_max" : 0.2060819612
        },
        "meters" : {
          "estimated_diameter_min" : 92.1626548503,
          "estimated_diameter_max" : 206.0819612321
        },
        "miles" : {
          "estimated_diameter_min" : 0.057267201,
          "estimated_diameter_max" : 0.1280533543
        },
        "feet" : {
          "estimated_diameter_min" : 302.370924539,
          "estimated_diameter_max" : 676.1219416887
        }
      },
      "is_potentially_hazardous_asteroid" : false,
      "close_approach_data" : [ {
        "close_approach_date" : "2012-08-08",
        "epoch_date_close_approach" : 1344409200000,
        "relative_velocity" : {
          "kilometers_per_second" : "5.7887378414",
          "kilometers_per_hour" : "20839.4562291698",
          "miles_per_hour" : "12948.8276775083"
        },
        "miss_distance" : {
          "astronomical" : "0.4996391873",
          "lunar" : "194.3596496582",
          "kilometers" : "74744960",
          "miles" : "46444364"
        },
        "orbiting_body" : "Earth"
      } ],
      "orbital_data" : {
        "orbit_id" : "14",
        "orbit_determination_date" : "2017-04-06 09:10:34",
        "orbit_uncertainty" : "5",
        "minimum_orbit_intersection" : ".0492711",
        "jupiter_tisserand_invariant" : "4.555",
        "epoch_osculation" : "2458000.5",
        "eccentricity" : ".3267192472022494",
        "semi_major_axis" : "1.461647773971033",
        "inclination" : "6.760157257389329",
        "ascending_node_longitude" : "176.1349687278723",
        "orbital_period" : "645.4498751219246",
        "perihelion_distance" : ".9840993135843734",
        "perihelion_argument" : "233.6949467667572",
        "aphelion_distance" : "1.939196234357693",
        "perihelion_time" : "2458206.075458110516",
        "mean_anomaly" : "245.340182449015",
        "mean_motion" : ".5577505146034717",
        "equinox" : "J2000"
      }
    }, {
      "links" : {
        "self" : "https://api.nasa.gov/neo/rest/v1/neo/3289746?api_key=t0TVs3DtDT2H8Oy2Zy8m2eVrNsAVKAexjcZXUckd"
      },
      "neo_reference_id" : "3289746",
      "name" : "(2005 RK3)",
      "nasa_jpl_url" : "http://ssd.jpl.nasa.gov/sbdb.cgi?sstr=3289746",
      "absolute_magnitude_h" : 23.7,
      "estimated_diameter" : {
        "kilometers" : {
          "estimated_diameter_min" : 0.0483676488,
          "estimated_diameter_max" : 0.1081533507
        },
        "meters" : {
          "estimated_diameter_min" : 48.3676488219,
          "estimated_diameter_max" : 108.1533506775
        },
        "miles" : {
          "estimated_diameter_min" : 0.0300542543,
          "estimated_diameter_max" : 0.0672033557
        },
        "feet" : {
          "estimated_diameter_min" : 158.6865169607,
          "estimated_diameter_max" : 354.8338390368
        }
      },
      "is_potentially_hazardous_asteroid" : false,
      "close_approach_data" : [ {
        "close_approach_date" : "2012-08-08",
        "epoch_date_close_approach" : 1344409200000,
        "relative_velocity" : {
          "kilometers_per_second" : "8.2988774927",
          "kilometers_per_hour" : "29875.9589738207",
          "miles_per_hour" : "18563.7590634832"
        },
        "miss_distance" : {
          "astronomical" : "0.1854762178",
          "lunar" : "72.1502456665",
          "kilometers" : "27746846",
          "miles" : "17241092"
        },
        "orbiting_body" : "Earth"
      } ],
      "orbital_data" : {
        "orbit_id" : "31",
        "orbit_determination_date" : "2017-04-06 09:10:31",
        "orbit_uncertainty" : "0",
        "minimum_orbit_intersection" : ".0148448",
        "jupiter_tisserand_invariant" : "5.133",
        "epoch_osculation" : "2458000.5",
        "eccentricity" : ".1850745457621475",
        "semi_major_axis" : "1.247102356422829",
        "inclination" : "3.724588944670855",
        "ascending_node_longitude" : "342.6955661865342",
        "orbital_period" : "508.6880982933926",
        "perihelion_distance" : "1.01629545428897",
        "perihelion_argument" : "18.28899553831917",
        "aphelion_distance" : "1.477909258556688",
        "perihelion_time" : "2458216.450227523770",
        "mean_anomaly" : "207.1714157076302",
        "mean_motion" : ".7077028167314526",
        "equinox" : "J2000"
      }
    } ]
  }
}